ISS
1 25544U 98067A   26124.19972499  .00005402  00000+0  10582-3 0  9994
2 25544  51.6306 157.8339 0007307  21.3717 338.7575 15.49085010564935
CSS
1 48274U 21035A   26124.21223601  .00026092  00000+0  27888-3 0  9992
2 48274  41.4669 229.6452 0005502 327.6559  32.3943 15.63275069286291
HST
1 20580U 90037B   26123.99854367  .00007309  00000+0  23480-3 0  9997
2 20580  28.4763  22.4637 0001970  20.6307 339.4368 15.30267105781794
NOAA 20
1 43013U 17073A   26124.15898596  .00000074  00000+0  56168-4 0  9995
2 43013  98.7754  64.0176 0001977  62.1454 297.9922 14.19549265438228
NOAA 21
1 54234U 22150A   26124.12270556  .00000061  00000+0  49562-4 0  9997
2 54234  98.7042  63.6568 0001405   5.1233 354.9958 14.19557313180290
METOP-C
1 43689U 18087A   26119.57089331  .00000115  00000+0  72486-4 0  9996
2 43689  98.6676 180.0552 0000665  39.0689 321.0536 14.21512722387923
METEOR-M23
1 57166U 23091A   26124.18448332  .00000001  00000+0  19228-4 0  9994
2 57166  98.6112 180.0555 0002925 308.7940  51.2977 14.24043012148259
METEOR-M24
1 59051U 24039A   26124.14925804  .00000012  00000+0  24865-4 0  9997
2 59051  98.6985  84.0087 0006107 303.2786  56.7807 14.22424856113003
GOES 16
1 41866U 16071A   26124.19877691 -.00000083  00000+0  00000+0 0  9993
2 41866   0.2306  85.5833 0001228 269.4068 193.9408  1.00271778 34664
AO-7
1 07530U 74089B   26124.00693220 -.00000051  00000+0 -31626-4 0  9999
2 07530 101.9924 136.7900 0012031 213.9863 171.9418 12.53697379354980
AO-10
1 14129U 83058B   26123.20921749 -.00000250  00000+0  00000+0 0  9995
2 14129  25.8943 227.0534 6026722 103.2696 326.7923  2.05872826294563
UO-11
1 14781U 84021B   26124.18887950  .00001377  00000+0  14612-3 0  9991
2 14781  97.8029  90.2676 0007023 341.2603  18.8356 14.90678493250570
LO-19
1 20442U 90005G   26124.01819187  .00000122  00000+0  60475-4 0  9996
2 20442  98.8877 144.6010 0011146 341.2424  18.8347 14.34109203896067
AO-27
1 22825U 93061C   26124.15739454  .00000099  00000+0  54832-4 0  9994
2 22825  98.6897 191.5820 0007583 223.7817 136.2765 14.30930115700708
RS-15
1 23439U 94085A   26124.12619726 -.00000043  00000+0 -21587-4 0  9991
2 23439  64.8201  14.4758 0154704  11.9122 348.5396 11.27583778290930
FO-29
1 24278U 96046B   26124.09716291 -.00000017  00000+0  19721-4 0  9990
2 24278  98.5288 338.9963 0349318 210.7120 147.3158 13.53272278467205
SO-50
1 27607U 02058C   26124.12052622  .00001253  00000+0  16486-3 0  9990
2 27607  64.5520 265.3147 0075625 270.5007  88.7434 14.82951109257929
AO-73
1 39444U 13066AE  26124.16453503  .00008303  00000+0  52258-3 0  9990
2 39444  97.8259  94.7190 0036435 357.0543   3.0465 15.08904484673023
ESHAIL2
1 43700U 18090A   26124.12837883  .00000152  00000+0  00000+0 0  9993
2 43700   0.0166 277.7346 0001582 150.4986 225.8197  1.00270873 27230
AO-91
1 43017U 17073E   26124.07543898  .00008974  00000+0  39487-3 0  9993
2 43017  97.4759 352.2102 0154265 120.5821 241.0731 15.11915149458726
RS-44
1 44909U 19096E   26124.14537301  .00000025  00000+0  61451-4 0  9997
2 44909  82.5254   8.9736 0216455 247.2781 110.5313 12.79748004296712
CAS-9
1 50466U 21131B   26124.25041626  .00000653  00000+0  21539-3 0  9996
2 50466  98.4961 216.8836 0003299 215.6978 144.3990 14.41315619228787
IO-117
1 53109U 22080E   26122.89410547 -.00000003  00000+0  00000+0 0  9993
2 53109  70.1448 314.0048 0008850 300.3299  59.6485  6.42583286 89155
UMKA-1
1 57172U 23091G   26124.20017906  .00005009  00000+0  23329-3 0  9992
2 57172  97.5077 183.0763 0011210 272.6536  87.3416 15.20321415157324
